OBJECT_NAME,OBJECT_ID,EPOCH,MEAN_MOTION,ECCENTRICITY,INCLINATION,RA_OF_ASC_NODE,ARG_OF_PERICENTER,MEAN_ANOMALY,EPHEMERIS_TYPE,CLASSIFICATION_TYPE,NORAD_CAT_ID,ELEMENT_SET_NO,REV_AT_EPOCH,BSTAR,MEAN_MOTION_DOT,MEAN_MOTION_DDOT
STARLINK-1821,2020-073BA,2026-06-04T00:00:02.000160,15.49677682,.0004298,53.0426,176.1590,39.6116,214.8639,0,U,46718,999,581,.14632E-2,.82899E-3,0
STARLINK-1826,2020-073BF,2026-06-04T04:00:03.000096,15.78029086,.0007257,53.0425,113.5491,93.6684,71.0890,0,U,46723,999,596,.5765E-3,.100655E-2,0
STARLINK-1828,2020-073BH,2026-06-03T07:23:39.989472,15.68223008,.00070752,53.0464,178.4852,350.8710,9.2176,0,U,46725,999,31058,.63791868E-3,.72846E-3,0
STARLINK-1830,2020-073BK,2026-06-03T04:53:38.654304,15.70806648,.0006009,53.0354,124.4487,29.1697,330.9654,0,U,46727,999,31133,.87025E-3,.111353E-2,0
STARLINK-1892,2020-074E,2026-06-03T13:08:17.459520,15.67867676,.00081246,53.0389,235.5650,334.3194,25.7417,0,U,46743,999,31047,.84404833E-3,.95475E-3,0
STARLINK-1905,2020-074H,2026-06-04T04:00:03.000096,15.84933327,.0006252,53.0338,214.2104,347.3316,201.0996,0,U,46746,999,599,.31716E-2,.833694E-2,0
STARLINK-1922,2020-074Q,2026-06-04T04:00:03.000096,15.88803404,.000793,53.0359,213.2394,342.5903,120.7443,0,U,46753,999,593,.28229E-2,.903385E-2,0
STARLINK-1928,2020-074V,2026-06-04T04:00:03.000096,15.92894191,.0008152,53.0340,212.2577,345.9016,244.4006,0,U,46758,999,605,.2271E-2,.805561E-2,.28283E-3
STARLINK-1835,2020-074AV,2026-06-03T10:39:05.955552,15.72971618,.00069463,53.0384,213.1041,304.8274,55.2090,0,U,46782,999,31077,.67912457E-3,.9497E-3,0
STARLINK-1882,2020-074AX,2026-06-04T06:00:04.000320,15.83527710,.0006242,53.0412,205.7009,15.3669,94.7431,0,U,46784,999,594,.35616E-2,.880713E-2,0
STARLINK-1893,2020-074AZ,2026-06-03T08:01:10.295616,15.69291389,.00018207,53.0421,208.5085,50.1842,309.9334,0,U,46786,999,31083,.78371593E-3,.93804E-3,0
STARLINK-1931,2020-074BD,2026-06-04T06:00:04.000320,15.91192378,.000869,53.0344,211.5638,356.2808,223.1339,0,U,46790,999,600,.27371E-2,.888606E-2,.33992E-3
STARLINK-1942,2020-074BH,2026-06-04T00:00:02.000160,15.62884435,.000733,53.0393,236.8802,309.6401,154.7010,0,U,46794,999,595,.73858E-3,.68086E-3,0
STARLINK-1944,2020-074BK,2026-06-04T04:00:03.000096,15.86909207,.0005748,53.0346,200.4781,358.0904,245.6835,0,U,46796,999,583,.28327E-2,.81741E-2,0
COSMOS 2547 [GLONASS-K],2020-075A,2026-06-01T11:00:56.634048,2.13100326,.00091303,64.5982,193.0008,239.1969,120.7967,0,U,46805,999,4357,0,.73E-6,0
YAOGAN-30 08A,2020-076A,2026-06-04T05:23:28.917600,15.02634083,.0000935,34.9922,170.2357,259.8624,100.1978,0,U,46807,999,30616,.19687E-3,.2648E-4,0
YAOGAN-30 08B,2020-076B,2026-06-04T04:51:19.626336,15.02650631,.0001593,34.9927,170.1292,256.2102,103.8429,0,U,46808,999,30627,.17741E-3,.2385E-4,0
YAOGAN-30 08C,2020-076C,2026-06-04T04:20:21.416352,15.02618901,.0006997,34.9940,170.1475,310.6366,49.3734,0,U,46809,999,30618,.20566E-3,.2768E-4,0
TIANQI-6,2020-076D,2026-06-03T14:59:14.195904,15.07086378,.00094241,34.9978,131.6964,46.3228,313.8262,0,U,46810,999,30653,.27311214E-3,.4161E-4,0
CE-SAT IIB,2020-077F,2026-06-04T03:52:21.556704,15.97287523,.0005182,97.2029,237.0747,197.2491,162.8611,0,U,46818,999,31320,.39038E-3,.169686E-2,.13435E-4
NAVSTAR 80 (USA 309),2020-078A,2026-06-03T10:00:37.783872,2.00565038,.00729168,53.9816,211.3373,206.8383,232.4954,0,U,46826,999,4123,0,.4E-6,0
RISAT-2BR2,2020-081A,2026-06-03T20:23:28.883040,15.01546413,.0010472,36.8999,303.4796,46.4532,313.7078,0,U,46905,999,30546,.31107067E-3,.4033E-4,0
KSM1-C,2020-081B,2026-06-04T05:02:29.882976,15.26510745,.0000718,36.8932,139.0451,161.2570,198.8206,0,U,46906,999,30718,.31438E-3,.8314E-4,0
KSM1-D,2020-081C,2026-06-04T04:40:20.255232,15.24526372,.0003388,36.8946,147.8978,173.2802,186.7992,0,U,46907,999,30711,.26341E-3,.6541E-4,0
KSM1-A,2020-081H,2026-06-04T04:57:36.529920,15.25742319,.000423,36.8942,141.3623,225.7744,134.2658,0,U,46912,999,30719,.32239E-3,.8332E-4,0
R2,2020-081J,2026-06-01T01:57:08.509536,15.25182244,.00068263,36.8961,160.5241,158.1099,201.9942,0,U,46913,999,30952,.346666E-3,.882E-4,0
KSM1-B,2020-081K,2026-06-04T04:42:44.695296,15.24321144,.0005444,36.9003,148.4626,186.8149,173.2527,0,U,46914,999,31020,.29806E-3,.7371E-4,0
TIANTONG-1 2,2020-082A,2026-06-04T00:27:59.705856,1.00270837,.0001642,0.8079,325.6256,102.7362,316.0669,0,U,46916,999,2052,0,-.344E-5,0
DRAGRACER 2 (AUGURY),2020-085AC,2026-06-04T00:47:01.729824,15.70122651,.0003349,97.5801,350.1228,320.0673,40.0342,0,U,46955,999,30980,.3209E-3,.38694E-3,0
SENTINEL-6A,2020-086A,2026-06-04T01:07:23.676384,12.80929616,.0007953,66.0385,162.3453,270.2019,89.8084,0,U,46984,999,25864,.13927E-4,-.58E-6,0
