STARLINK-1821           
1 46718U 20073BA  26155.00002315  .00082899  00000+0  14632-2 0  9991
2 46718  53.0426 176.1590 0004298  39.6116 214.8639 15.49677682  5818
STARLINK-1826           
1 46723U 20073BF  26155.16670139  .00100655  00000+0  57650-3 0  9998
2 46723  53.0425 113.5491 0007257  93.6684  71.0890 15.78029086  5965
STARLINK-1828           
1 46725U 20073BH  26154.30810173  .00072846  00000+0  63792-3 0  9993
2 46725  53.0464 178.4852 0007075 350.8710   9.2176 15.68223008310583
STARLINK-1830           
1 46727U 20073BK  26154.20391961  .00111353  00000+0  87025-3 0  9995
2 46727  53.0354 124.4487 0006009  29.1697 330.9654 15.70806648311333
STARLINK-1892           
1 46743U 20074E   26154.54742430  .00095475  00000+0  84405-3 0  9997
2 46743  53.0389 235.5650 0008124 334.3194  25.7417 15.67867676310472
STARLINK-1905           
1 46746U 20074H   26155.16670139  .00833694  00000+0  31716-2 0  9994
2 46746  53.0338 214.2104 0006252 347.3316 201.0996 15.84933327  5992
STARLINK-1922           
1 46753U 20074Q   26155.16670139  .00903385  00000+0  28229-2 0  9992
2 46753  53.0359 213.2394 0007930 342.5903 120.7443 15.88803404  5930
STARLINK-1928           
1 46758U 20074V   26155.16670139  .00805561  28283-3  22710-2 0  9990
2 46758  53.0340 212.2577 0008152 345.9016 244.4006 15.92894191  6057
STARLINK-1835           
1 46782U 20074AV  26154.44381893  .00094970  00000+0  67912-3 0  9994
2 46782  53.0384 213.1041 0006946 304.8274  55.2090 15.72971618310773
STARLINK-1882           
1 46784U 20074AX  26155.25004630  .00880713  00000+0  35616-2 0  9990
2 46784  53.0412 205.7009 0006242  15.3669  94.7431 15.83527710  5948
STARLINK-1893           
1 46786U 20074AZ  26154.33414694  .00093804  00000+0  78372-3 0  9999
2 46786  53.0421 208.5085 0001820  50.1842 309.9334 15.69291389310836
STARLINK-1931           
1 46790U 20074BD  26155.25004630  .00888606  33992-3  27371-2 0  9995
2 46790  53.0344 211.5638 0008690 356.2808 223.1339 15.91192378  6003
STARLINK-1942           
1 46794U 20074BH  26155.00002315  .00068086  00000+0  73858-3 0  9994
2 46794  53.0393 236.8802 0007330 309.6401 154.7010 15.62884435  5953
STARLINK-1944           
1 46796U 20074BK  26155.16670139  .00817410  00000+0  28327-2 0  9991
2 46796  53.0346 200.4781 0005748 358.0904 245.6835 15.86909207  5836
COSMOS 2547 [GLONASS-K] 
1 46805U 20075A   26152.45898882  .00000073  00000+0  00000+0 0  9993
2 46805  64.5982 193.0008 0009130 239.1969 120.7967  2.13100326 43571
YAOGAN-30 08A           
1 46807U 20076A   26155.22464025  .00002648  00000+0  19687-3 0  9997
2 46807  34.9922 170.2357 0000935 259.8624 100.1978 15.02634083306168
YAOGAN-30 08B           
1 46808U 20076B   26155.20231049  .00002385  00000+0  17741-3 0  9991
2 46808  34.9927 170.1292 0001593 256.2102 103.8429 15.02650631306274
YAOGAN-30 08C           
1 46809U 20076C   26155.18080343  .00002768  00000+0  20566-3 0  9992
2 46809  34.9940 170.1475 0006997 310.6366  49.3734 15.02618901306180
TIANQI-6                
1 46810U 20076D   26154.62446986  .00004161  00000+0  27311-3 0  9995
2 46810  34.9978 131.6964 0009424  46.3228 313.8262 15.07086378306532
CE-SAT IIB              
1 46818U 20077F   26155.16136061  .00169686  13435-4  39038-3 0  9998
2 46818  97.2029 237.0747 0005182 197.2491 162.8611 15.97287523313200
NAVSTAR 80 (USA 309)    
1 46826U 20078A   26154.41710398  .00000040  00000+0  00000+0 0  9996
2 46826  53.9816 211.3373 0072916 206.8383 232.4954  2.00565038 41233
RISAT-2BR2              
1 46905U 20081A   26154.84963985  .00004033  00000+0  31107-3 0  9999
2 46905  36.8999 303.4796 0010472  46.4532 313.7078 15.01546413305467
KSM1-C                  
1 46906U 20081B   26155.21006809  .00008314  00000+0  31438-3 0  9998
2 46906  36.8932 139.0451 0000718 161.2570 198.8206 15.26510745307188
KSM1-D                  
1 46907U 20081C   26155.19467888  .00006541  00000+0  26341-3 0  9991
2 46907  36.8946 147.8978 0003388 173.2802 186.7992 15.24526372307114
KSM1-A                  
1 46912U 20081H   26155.20667280  .00008332  00000+0  32239-3 0  9990
2 46912  36.8942 141.3623 0004230 225.7744 134.2658 15.25742319307194
R2                      
1 46913U 20081J   26152.08134849  .00008820  00000+0  34667-3 0  9993
2 46913  36.8961 160.5241 0006826 158.1099 201.9942 15.25182244309522
KSM1-B                  
1 46914U 20081K   26155.19635064  .00007371  00000+0  29806-3 0  9993
2 46914  36.9003 148.4626 0005444 186.8149 173.2527 15.24321144310202
TIANTONG-1 2            
1 46916U 20082A   26155.01944104 -.00000344  00000+0  00000+0 0  9990
2 46916   0.8079 325.6256 0001642 102.7362 316.0669  1.00270837 20523
DRAGRACER 2 (AUGURY)    
1 46955U 20085AC  26155.03265891  .00038694  00000+0  32090-3 0  9993
2 46955  97.5801 350.1228 0003349 320.0673  40.0342 15.70122651309805
SENTINEL-6A             
1 46984U 20086A   26155.04680181 -.00000058  00000+0  13927-4 0  9993
2 46984  66.0385 162.3453 0007953 270.2019  89.8084 12.80929616258646
